[{"OBJECT_NAME":"HTV-X1","OBJECT_ID":"2025-241A","EPOCH":"2026-03-04T03:45:47.118240","MEAN_MOTION":15.48434477,"ECCENTRICITY":0.0008201,"INCLINATION":51.6316,"RA_OF_ASC_NODE":99.7104,"ARG_OF_PERICENTER":155.0339,"MEAN_ANOMALY":205.1047,"EPHEMERIS_TYPE":0,"CLASSIFICATION_TYPE":"U","NORAD_CAT_ID":66174,"ELEMENT_SET_NO":999,"REV_AT_EPOCH":55575,"BSTAR":0.00019684,"MEAN_MOTION_DOT":0.00010207,"MEAN_MOTION_DDOT":0},{"OBJECT_NAME":"SZ-21 MODULE","OBJECT_ID":"2025-246C","EPOCH":"2026-03-03T18:27:35.995968","MEAN_MOTION":15.6801182,"ECCENTRICITY":0.00014472,"INCLINATION":41.473,"RA_OF_ASC_NODE":239.793,"ARG_OF_PERICENTER":287.9355,"MEAN_ANOMALY":72.1329,"EPHEMERIS_TYPE":0,"CLASSIFICATION_TYPE":"U","NORAD_CAT_ID":66515,"ELEMENT_SET_NO":999,"REV_AT_EPOCH":1714,"BSTAR":0.00039281321,"MEAN_MOTION_DOT":0.00044751,"MEAN_MOTION_DDOT":0},{"OBJECT_NAME":"SHENZHOU-22","OBJECT_ID":"2025-272A","EPOCH":"2026-03-04T03:32:44.323872","MEAN_MOTION":15.60380094,"ECCENTRICITY":0.0006828,"INCLINATION":41.4658,"RA_OF_ASC_NODE":241.875,"ARG_OF_PERICENTER":240.6834,"MEAN_ANOMALY":119.3323,"EPHEMERIS_TYPE":0,"CLASSIFICATION_TYPE":"U","NORAD_CAT_ID":66645,"ELEMENT_SET_NO":999,"REV_AT_EPOCH":26825,"BSTAR":0.00035996,"MEAN_MOTION_DOT":0.00030185,"MEAN_MOTION_DDOT":0},{"OBJECT_NAME":"SOYUZ-MS 28","OBJECT_ID":"2025-275A","EPOCH":"2026-03-04T03:45:47.118240","MEAN_MOTION":15.48434477,"ECCENTRICITY":0.0008201,"INCLINATION":51.6316,"RA_OF_ASC_NODE":99.7104,"ARG_OF_PERICENTER":155.0339,"MEAN_ANOMALY":205.1047,"EPHEMERIS_TYPE":0,"CLASSIFICATION_TYPE":"U","NORAD_CAT_ID":66664,"ELEMENT_SET_NO":999,"REV_AT_EPOCH":55591,"BSTAR":0.00019684,"MEAN_MOTION_DOT":0.00010207,"MEAN_MOTION_DDOT":0},{"OBJECT_NAME":"DUPLEX","OBJECT_ID":"1998-067XS","EPOCH":"2026-03-04T03:02:58.036704","MEAN_MOTION":15.55805155,"ECCENTRICITY":0.0002066,"INCLINATION":51.6284,"RA_OF_ASC_NODE":97.2659,"ARG_OF_PERICENTER":91.2165,"MEAN_ANOMALY":268.9063,"EPHEMERIS_TYPE":0,"CLASSIFICATION_TYPE":"U","NORAD_CAT_ID":66906,"ELEMENT_SET_NO":999,"REV_AT_EPOCH":1426,"BSTAR":0.00056459,"MEAN_MOTION_DOT":0.00039457,"MEAN_MOTION_DDOT":0},{"OBJECT_NAME":"ISS OBJECT XT","OBJECT_ID":"1998-067XT","EPOCH":"2026-03-04T02:27:54.145728","MEAN_MOTION":15.67342858,"ECCENTRICITY":0.0004672,"INCLINATION":51.6245,"RA_OF_ASC_NODE":94.0932,"ARG_OF_PERICENTER":41.2658,"MEAN_ANOMALY":318.869,"EPHEMERIS_TYPE":0,"CLASSIFICATION_TYPE":"U","NORAD_CAT_ID":66907,"ELEMENT_SET_NO":999,"REV_AT_EPOCH":1430,"BSTAR":0.0015595,"MEAN_MOTION_DOT":0.0017488,"MEAN_MOTION_DDOT":0},{"OBJECT_NAME":"ISS OBJECT XU","OBJECT_ID":"1998-067XU","EPOCH":"2026-03-04T02:25:50.987712","MEAN_MOTION":15.67438854,"ECCENTRICITY":0.0004715,"INCLINATION":51.6244,"RA_OF_ASC_NODE":94.0803,"ARG_OF_PERICENTER":45.5168,"MEAN_ANOMALY":314.6213,"EPHEMERIS_TYPE":0,"CLASSIFICATION_TYPE":"U","NORAD_CAT_ID":66908,"ELEMENT_SET_NO":999,"REV_AT_EPOCH":1430,"BSTAR":0.0015859,"MEAN_MOTION_DOT":0.00178631,"MEAN_MOTION_DDOT":0},{"OBJECT_NAME":"SILVERSAT","OBJECT_ID":"1998-067XV","EPOCH":"2026-03-04T02:41:11.781024","MEAN_MOTION":15.69884457,"ECCENTRICITY":0.0005539,"INCLINATION":51.6238,"RA_OF_ASC_NODE":93.4007,"ARG_OF_PERICENTER":42.4884,"MEAN_ANOMALY":317.6541,"EPHEMERIS_TYPE":0,"CLASSIFICATION_TYPE":"U","NORAD_CAT_ID":66909,"ELEMENT_SET_NO":999,"REV_AT_EPOCH":1431,"BSTAR":0.0017275,"MEAN_MOTION_DOT":0.00216262,"MEAN_MOTION_DDOT":0},{"OBJECT_NAME":"ISS OBJECT XW","OBJECT_ID":"1998-067XW","EPOCH":"2026-03-03T10:59:07.056384","MEAN_MOTION":15.66680726,"ECCENTRICITY":0.00048698,"INCLINATION":51.6243,"RA_OF_ASC_NODE":97.2785,"ARG_OF_PERICENTER":51.9689,"MEAN_ANOMALY":308.1746,"EPHEMERIS_TYPE":0,"CLASSIFICATION_TYPE":"U","NORAD_CAT_ID":66910,"ELEMENT_SET_NO":999,"REV_AT_EPOCH":1420,"BSTAR":0.001218439,"MEAN_MOTION_DOT":0.00132206,"MEAN_MOTION_DDOT":0},{"OBJECT_NAME":"ISS OBJECT XX","OBJECT_ID":"1998-067XX","EPOCH":"2026-03-04T04:22:51.196800","MEAN_MOTION":15.72471487,"ECCENTRICITY":0.0006925,"INCLINATION":51.6215,"RA_OF_ASC_NODE":92.3562,"ARG_OF_PERICENTER":49.2793,"MEAN_ANOMALY":310.8806,"EPHEMERIS_TYPE":0,"CLASSIFICATION_TYPE":"U","NORAD_CAT_ID":66911,"ELEMENT_SET_NO":999,"REV_AT_EPOCH":1432,"BSTAR":0.0020053,"MEAN_MOTION_DOT":0.00282325,"MEAN_MOTION_DDOT":0},{"OBJECT_NAME":"ISS OBJECT XY","OBJECT_ID":"1998-067XY","EPOCH":"2026-03-04T02:00:00.234720","MEAN_MOTION":15.6251663,"ECCENTRICITY":0.0002906,"INCLINATION":51.6268,"RA_OF_ASC_NODE":95.4706,"ARG_OF_PERICENTER":56.5889,"MEAN_ANOMALY":303.5383,"EPHEMERIS_TYPE":0,"CLASSIFICATION_TYPE":"U","NORAD_CAT_ID":66912,"ELEMENT_SET_NO":999,"REV_AT_EPOCH":1427,"BSTAR":0.0011699,"MEAN_MOTION_DOT":0.00107173,"MEAN_MOTION_DDOT":0},{"OBJECT_NAME":"ISS OBJECT XZ","OBJECT_ID":"1998-067XZ","EPOCH":"2026-03-04T02:58:44.644512","MEAN_MOTION":15.5131671,"ECCENTRICITY":0.0009483,"INCLINATION":51.6304,"RA_OF_ASC_NODE":99.4942,"ARG_OF_PERICENTER":167.0393,"MEAN_ANOMALY":193.0841,"EPHEMERIS_TYPE":0,"CLASSIFICATION_TYPE":"U","NORAD_CAT_ID":67683,"ELEMENT_SET_NO":999,"REV_AT_EPOCH":392,"BSTAR":0.0008059,"MEAN_MOTION_DOT":0.00048104,"MEAN_MOTION_DDOT":0},{"OBJECT_NAME":"GXIBA-1","OBJECT_ID":"1998-067YA","EPOCH":"2026-03-03T06:26:38.282496","MEAN_MOTION":15.53164734,"ECCENTRICITY":0.00109781,"INCLINATION":51.6298,"RA_OF_ASC_NODE":103.5313,"ARG_OF_PERICENTER":154.9471,"MEAN_ANOMALY":205.2054,"EPHEMERIS_TYPE":0,"CLASSIFICATION_TYPE":"U","NORAD_CAT_ID":67684,"ELEMENT_SET_NO":999,"REV_AT_EPOCH":379,"BSTAR":0.0011656143,"MEAN_MOTION_DOT":0.00074906,"MEAN_MOTION_DDOT":0},{"OBJECT_NAME":"CORAL","OBJECT_ID":"1998-067YB","EPOCH":"2026-03-04T02:54:03.657024","MEAN_MOTION":15.51617539,"ECCENTRICITY":0.0011412,"INCLINATION":51.6306,"RA_OF_ASC_NODE":99.4725,"ARG_OF_PERICENTER":163.4615,"MEAN_ANOMALY":196.6749,"EPHEMERIS_TYPE":0,"CLASSIFICATION_TYPE":"U","NORAD_CAT_ID":67685,"ELEMENT_SET_NO":999,"REV_AT_EPOCH":392,"BSTAR":0.00084892,"MEAN_MOTION_DOT":0.00051311,"MEAN_MOTION_DDOT":0},{"OBJECT_NAME":"ISS OBJECT YC","OBJECT_ID":"1998-067YC","EPOCH":"2026-03-04T02:48:34.655328","MEAN_MOTION":15.52036952,"ECCENTRICITY":0.0007705,"INCLINATION":51.6306,"RA_OF_ASC_NODE":99.4495,"ARG_OF_PERICENTER":130.8596,"MEAN_ANOMALY":229.3063,"EPHEMERIS_TYPE":0,"CLASSIFICATION_TYPE":"U","NORAD_CAT_ID":67686,"ELEMENT_SET_NO":999,"REV_AT_EPOCH":392,"BSTAR":0.0010702,"MEAN_MOTION_DOT":0.00065825,"MEAN_MOTION_DDOT":0},{"OBJECT_NAME":"LEOPARD","OBJECT_ID":"1998-067YD","EPOCH":"2026-03-04T02:56:13.174080","MEAN_MOTION":15.51460926,"ECCENTRICITY":0.0007776,"INCLINATION":51.6307,"RA_OF_ASC_NODE":99.4833,"ARG_OF_PERICENTER":135.454,"MEAN_ANOMALY":224.7075,"EPHEMERIS_TYPE":0,"CLASSIFICATION_TYPE":"U","NORAD_CAT_ID":67687,"ELEMENT_SET_NO":999,"REV_AT_EPOCH":384,"BSTAR":0.00084698,"MEAN_MOTION_DOT":0.00050832,"MEAN_MOTION_DDOT":0},{"OBJECT_NAME":"ISS OBJECT YE","OBJECT_ID":"1998-067YE","EPOCH":"2026-03-03T09:50:56.473440","MEAN_MOTION":15.51755615,"ECCENTRICITY":0.00077001,"INCLINATION":51.6313,"RA_OF_ASC_NODE":102.98,"ARG_OF_PERICENTER":129.5648,"MEAN_ANOMALY":230.6023,"EPHEMERIS_TYPE":0,"CLASSIFICATION_TYPE":"U","NORAD_CAT_ID":67688,"ELEMENT_SET_NO":999,"REV_AT_EPOCH":373,"BSTAR":0.00081367548,"MEAN_MOTION_DOT":0.00049325,"MEAN_MOTION_DDOT":0}]
